NORAD_CAT_ID,OBJECT_NAME,OBJECT_TYPE,EPOCH,MEAN_MOTION,ECCENTRICITY,INCLINATION,RA_OF_ASC_NODE,ARG_OF_PERICENTER,MEAN_ANOMALY,BSTAR,MEAN_MOTION_DOT,MEAN_MOTION_DDOT,TLE_LINE0,TLE_LINE1,TLE_LINE2,SEMIMAJOR_AXIS,PERIOD,APOGEE,PERIGEE,DECAYED
55435.0,STARLINK-5626,PAYLOAD,2024-05-24 20:54:02,14.98337006,0.0003171,69.9984,312.9377,265.3015,94.7782,8.7661e-05,9.53e-06,0.0,0 STARLINK-5626,1 55435U 23014AW  24145.87086242  .00000953  00000-0  87661-4 0  9994,2 55435  69.9984 312.9377 0003171 265.3015  94.7782 14.98337006 72192,6950.171,96.107,574.24,569.832,0.0
55435.0,STARLINK-5626,PAYLOAD,2024-05-25 12:55:24,14.98324944,0.0003054,69.9988,311.2542,269.6218,90.4591,1.4384e-05,7.9e-07,0.0,0 STARLINK-5626,1 55435U 23014AW  24146.53847293  .00000079  00000-0  14384-4 0  9990,2 55435  69.9988 311.2542 0003054 269.6218  90.4591 14.98324944 72293,6950.209,96.107,574.196,569.951,0.0
55435.0,STARLINK-5626,PAYLOAD,2024-05-25 14:31:32,14.9832479,0.000306,69.9989,311.0858,269.4992,90.5816,9.9972e-06,2.6e-07,0.0,0 STARLINK-5626,1 55435U 23014AW  24146.60523318  .00000026  00000-0  99972-5 0  9996,2 55435  69.9989 311.0858 0003060 269.4992  90.5816 14.98324790 73242,6950.209,96.107,574.201,569.947,0.0
55435.0,STARLINK-5626,PAYLOAD,2024-05-26 12:57:24,14.98316279,0.000359,69.9984,308.7289,276.8037,83.2714,0.00036249,4.233e-05,0.0,0 STARLINK-5626,1 55435U 23014AW  24147.53987023  .00004233  00000-0  36249-3 0  9996,2 55435  69.9984 308.7289 0003590 276.8037  83.2714 14.98316279 72448,6950.235,96.108,574.595,569.605,0.0
55435.0,STARLINK-5626,PAYLOAD,2024-05-26 14:33:32,14.98332284,0.0003253,69.9985,308.5604,272.7174,87.3613,9.6903e-05,1.063e-05,0.0,0 STARLINK-5626,1 55435U 23014AW  24147.60662736  .00001063  00000-0  96903-4 0  9997,2 55435  69.9985 308.5604 0003253 272.7174  87.3613 14.98332284 73393,6950.186,96.107,574.312,569.79,0.0
55435.0,STARLINK-5626,PAYLOAD,2024-05-26 20:58:04,14.98343054,0.0003427,69.9974,307.8865,276.2627,83.8142,0.00017683,2.018e-05,0.0,0 STARLINK-5626,1 55435U 23014AW  24147.87365786  .00002018  00000-0  17683-3 0  9999,2 55435  69.9974 307.8865 0003427 276.2627  83.8142 14.98343054 72492,6950.153,96.106,574.399,569.636,0.0
55435.0,STARLINK-5626,PAYLOAD,2024-05-27 01:46:28,14.98326925,0.0003105,69.9982,307.3842,275.61,84.4705,0.00040765,4.774e-05,0.0,0 STARLINK-5626,1 55435U 23014AW  24148.07394471  .00004774  00000-0  40765-3 0  9993,2 55435  69.9982 307.3842 0003105 275.6100  84.4705 14.98326925 72527,6950.202,96.107,574.225,569.909,0.0
55435.0,STARLINK-5626,PAYLOAD,2024-05-27 14:35:33,14.983267,0.0003156,69.9984,306.035,271.9005,88.1793,9.9632e-05,1.096e-05,0.0,0 STARLINK-5626,1 55435U 23014AW  24148.60803021  .00001096  00000-0  99632-4 0  9990,2 55435  69.9984 306.0350 0003156 271.9005  88.1793 14.98326700 73540,6950.203,96.107,574.262,569.875,0.0
55435.0,STARLINK-5626,PAYLOAD,2024-05-27 21:00:05,14.98332205,0.0003203,69.9985,305.3621,271.6539,88.4253,0.00015723,1.784e-05,0.0,0 STARLINK-5626,1 55435U 23014AW  24148.87506625  .00001784  00000-0  15723-3 0  9991,2 55435  69.9985 305.3621 0003203 271.6539  88.4253 14.98332205 73581,6950.186,96.107,574.277,569.825,0.0
55435.0,STARLINK-5626,PAYLOAD,2024-05-28 05:00:46,14.98332276,0.0003124,69.9983,304.5203,270.7116,89.3685,0.0001223,1.367e-05,0.0,0 STARLINK-5626,1 55435U 23014AW  24149.20886890  .00001367  00000-0  12230-3 0  9991,2 55435  69.9983 304.5203 0003124 270.7116  89.3685 14.98332276 72697,6950.186,96.107,574.222,569.88,0.0
55435.0,STARLINK-5626,PAYLOAD,2024-05-28 14:37:34,14.98338292,0.0003223,69.9999,303.51,271.0228,89.0562,0.0001217,1.36e-05,0.0,0 STARLINK-5626,1 55435U 23014AW  24149.60942317  .00001360  00000-0  12170-3 0  9998,2 55435  69.9999 303.5100 0003223 271.0228  89.0562 14.98338292 73693,6950.167,96.106,574.272,569.792,0.0
55435.0,STARLINK-5626,PAYLOAD,2024-05-28 19:25:58,14.98340942,0.0003186,70.0003,303.0051,270.5843,89.4951,0.00024934,2.884e-05,0.0,0 STARLINK-5626,1 55435U 23014AW  24149.80970158  .00002884  00000-0  24934-3 0  9997,2 55435  70.0003 303.0051 0003186 270.5843  89.4951 14.98340942 72787,6950.159,96.106,574.238,569.81,0.0
55435.0,STARLINK-5626,PAYLOAD,2024-05-28 21:02:06,14.98342337,0.0003205,70.0003,302.8367,271.1497,88.9295,0.00028881,3.356e-05,0.0,0 STARLINK-5626,1 55435U 23014AW  24149.87646090  .00003356  00000-0  28881-3 0  9999,2 55435  70.0003 302.8367 0003205 271.1497  88.9295 14.98342337 73739,6950.155,96.106,574.247,569.792,0.0
55435.0,STARLINK-5626,PAYLOAD,2024-05-29 05:02:46,14.98330118,0.0003182,70.0005,301.9952,270.9694,89.1101,-3.6957e-06,-1.37e-06,0.0,0 STARLINK-5626,1 55435U 23014AW  24150.21026435 -.00000137  00000-0 -36957-5 0  9995,2 55435  70.0005 301.9952 0003182 270.9694  89.1101 14.98330118 72845,6950.193,96.107,574.269,569.846,0.0
55435.0,STARLINK-5626,PAYLOAD,2024-05-29 13:03:27,14.98329279,0.0003188,70.0,301.1535,270.2435,89.8359,0.00010873,1.205e-05,0.0,0 STARLINK-5626,1 55435U 23014AW  24150.54406680  .00001205  00000-0  10873-3 0  9997,2 55435  70.0000 301.1535 0003188 270.2435  89.8359 14.98329279 73839,6950.195,96.107,574.276,569.844,0.0
55435.0,STARLINK-5626,PAYLOAD,2024-05-29 21:04:07,14.98337229,0.000322,69.9999,300.3119,271.2084,88.8706,0.00020471,2.351e-05,0.0,0 STARLINK-5626,1 55435U 23014AW  24150.87786325  .00002351  00000-0  20471-3 0  9998,2 55435  69.9999 300.3119 0003220 271.2084  88.8706 14.98337229 73884,6950.171,96.107,574.273,569.798,0.0
55435.0,STARLINK-5626,PAYLOAD,2024-05-30 13:05:27,14.98338469,0.0003237,69.9998,298.6285,271.4292,88.6496,0.00023626,2.728e-05,0.0,0 STARLINK-5626,1 55435U 23014AW  24151.54546187  .00002728  00000-0  23626-3 0  9996,2 55435  69.9998 298.6285 0003237 271.4292  88.6496 14.98338469 73046,6950.167,96.106,574.281,569.782,0.0
55435.0,STARLINK-5626,PAYLOAD,2024-05-30 14:41:35,14.98339156,0.0003236,69.9998,298.4602,271.4218,88.657,0.00024021,2.775e-05,0.0,0 STARLINK-5626,1 55435U 23014AW  24151.61222134  .00002775  00000-0  24021-3 0  9999,2 55435  69.9998 298.4602 0003236 271.4218  88.6570 14.98339156 73995,6950.165,96.106,574.279,569.781,0.0
55435.0,STARLINK-5626,PAYLOAD,2024-05-30 17:53:51,14.98343598,0.0003228,69.9999,298.1235,271.7288,88.3501,0.00030506,3.55e-05,0.0,0 STARLINK-5626,1 55435U 23014AW  24151.74573854  .00003550  00000-0  30506-3 0  9998,2 55435  69.9999 298.1235 0003228 271.7288  88.3501 14.98343598 74016,6950.151,96.106,574.259,569.772,0.0
55435.0,STARLINK-5626,PAYLOAD,2024-05-31 11:31:20,14.98330757,0.0003216,69.9998,296.2718,272.8483,87.2308,0.00015423,1.748e-05,0.0,0 STARLINK-5626,1 55435U 23014AW  24152.48010331  .00001748  00000-0  15423-3 0  9994,2 55435  69.9998 296.2718 0003216 272.8483  87.2308 14.98330757 73189,6950.191,96.107,574.291,569.82,0.0
55435.0,STARLINK-5626,PAYLOAD,2024-05-31 14:43:36,14.98331915,0.0003222,69.9998,295.9352,272.7544,87.3246,0.00013988,1.576e-05,0.0,0 STARLINK-5626,1 55435U 23014AW  24152.61362261  .00001576  00000-0  13988-3 0  9994,2 55435  69.9998 295.9352 0003222 272.7544  87.3246 14.98331915 74149,6950.187,96.107,574.291,569.813,0.0
55435.0,STARLINK-5626,PAYLOAD,2024-05-31 19:32:00,14.98334492,0.0003184,69.9988,295.4298,270.9476,89.1318,0.00015243,1.726e-05,0.0,0 STARLINK-5626,1 55435U 23014AW  24152.81390017  .00001726  00000-0  15243-3 0  9999,2 55435  69.9988 295.4298 0003184 270.9476  89.1318 14.98334492 74179,6950.179,96.107,574.257,569.831,0.0
55435.0,STARLINK-5626,PAYLOAD,2024-06-01 13:09:29,14.983322,0.0002968,69.9994,293.578,270.0555,90.0264,2.5157e-06,-6.3e-07,0.0,0 STARLINK-5626,1 55435U 23014AW  24153.54826325 -.00000063  00000-0  25157-5 0  9997,2 55435  69.9994 293.5780 0002968 270.0555  90.0264 14.98332200 73343,6950.186,96.107,574.114,569.988,0.0
55435.0,STARLINK-5626,PAYLOAD,2024-06-01 14:45:38,14.98330772,0.0002978,69.9995,293.41,267.8757,92.2061,1.1541e-05,4.5e-07,0.0,0 STARLINK-5626,1 55435U 23014AW  24153.61502373  .00000045  00000-0  11541-4 0  9999,2 55435  69.9995 293.4100 0002978 267.8757  92.2061 14.98330772 74294,6950.191,96.107,574.125,569.986,0.0
55435.0,STARLINK-5626,PAYLOAD,2024-06-02 11:35:23,14.98327712,0.0003128,69.9993,291.2223,268.5838,91.4962,4.4055e-05,4.33e-06,0.0,0 STARLINK-5626,1 55435U 23014AW  24154.48290544  .00000433  00000-0  44055-4 0  9996,2 55435  69.9993 291.2223 0003128 268.5838  91.4962 14.98327712 74426,6950.2,96.107,574.239,569.891,0.0
55435.0,STARLINK-5626,PAYLOAD,2024-06-02 19:36:03,14.9833169,0.0003053,69.9995,290.3815,266.1537,93.9273,8.1607e-05,8.81e-06,0.0,0 STARLINK-5626,1 55435U 23014AW  24154.81670243  .00000881  00000-0  81607-4 0  9992,2 55435  69.9995 290.3815 0003053 266.1537  93.9273 14.98331690 73535,6950.188,96.107,574.175,569.931,0.0
55435.0,STARLINK-5626,PAYLOAD,2024-06-03 11:37:23,14.98332932,0.0003124,69.9994,288.6974,270.4397,89.6404,0.00013863,1.562e-05,0.0,0 STARLINK-5626,1 55435U 23014AW  24155.48430177  .00001562  00000-0  13863-3 0  9991,2 55435  69.9994 288.6974 0003124 270.4397  89.6404 14.98332932 74574,6950.184,96.107,574.22,569.878,0.0
55435.0,STARLINK-5626,PAYLOAD,2024-06-04 11:39:24,14.98335421,0.0003106,69.9991,286.1723,267.3228,92.7575,0.00015498,1.757e-05,0.0,0 STARLINK-5626,1 55435U 23014AW  24156.48569898  .00001757  00000-0  15498-3 0  9997,2 55435  69.9991 286.1723 0003106 267.3228  92.7575 14.98335421 73786,6950.176,96.107,574.2,569.882,0.0
55435.0,STARLINK-5626,PAYLOAD,2024-06-04 14:51:40,14.98338105,0.0003215,69.9989,285.8357,266.7455,93.3336,0.00012437,1.392e-05,0.0,0 STARLINK-5626,1 55435U 23014AW  24156.61921738  .00001392  00000-0  12437-3 0  9992,2 55435  69.9989 285.8357 0003215 266.7455  93.3336 14.98338105 74749,6950.168,96.106,574.267,569.798,0.0
55435.0,STARLINK-5626,PAYLOAD,2024-06-05 02:04:36,14.98359746,0.0003379,69.998,284.6564,269.1499,90.9273,-0.00029049,-3.56e-05,0.0,0 STARLINK-5626,1 55435U 23014AW  24157.08652884 -.00003560  00000-0 -29049-3 0  9995,2 55435  69.9980 284.6564 0003379 269.1499  90.9273 14.98359746 73873,6950.101,96.105,574.314,569.617,0.0
